[{"OBJECT_NAME":"FLOCK 4G-4","OBJECT_ID":"2025-009BC","EPOCH":"2026-03-09T18:04:48.344448","MEAN_MOTION":15.26803327,"ECCENTRICITY":0.00015979,"INCLINATION":97.3994,"RA_OF_ASC_NODE":150.7963,"ARG_OF_PERICENTER":343.4316,"MEAN_ANOMALY":16.687,"EPHEMERIS_TYPE":0,"CLASSIFICATION_TYPE":"U","NORAD_CAT_ID":62659,"ELEMENT_SET_NO":999,"REV_AT_EPOCH":12132,"BSTAR":0.00045294179,"MEAN_MOTION_DOT":0.00011866,"MEAN_MOTION_DDOT":0},{"OBJECT_NAME":"ALSAT-3A","OBJECT_ID":"2026-009A","EPOCH":"2026-03-09T22:30:09.645696","MEAN_MOTION":15.23911932,"ECCENTRICITY":0.00134314,"INCLINATION":97.4617,"RA_OF_ASC_NODE":143.4537,"ARG_OF_PERICENTER":76.5175,"MEAN_ANOMALY":283.7557,"EPHEMERIS_TYPE":0,"CLASSIFICATION_TYPE":"U","NORAD_CAT_ID":67474,"ELEMENT_SET_NO":999,"REV_AT_EPOCH":816,"BSTAR":0.00035948927,"MEAN_MOTION_DOT":8.636e-5,"MEAN_MOTION_DDOT":0}]
